{"type": "FeatureCollection", "features": [ {"type": "Feature", "properties": {"norad_id": 28649, "name": "IRS-P5 (CARTOSAT-1)", "group": "resource", "lat": -65.40327022790511, "lon": 32.75091242363732, "alt_km": 604.1817841121738, "timestamp": "2025-12-15T14:57:57.496662+00:00", "meta": {"OBJECT_NAME": "IRS-P5 (CARTOSAT-1)", "OBJECT_ID": "2005-017A", "EPOCH": "2025-12-14T21:32:23.402112", "MEAN_MOTION": 14.90413613, "ECCENTRICITY": 0.00011183, "INCLINATION": 97.5498, "RA_OF_ASC_NODE": 15.2154, "ARG_OF_PERICENTER": 48.5747, "MEAN_ANOMALY": 311.5568, "EPHEMERIS_TYPE": 0, "CLASSIFICATION_TYPE": "U", "NORAD_CAT_ID": 28649, "ELEMENT_SET_NO": 999, "REV_AT_EPOCH": 11636, "BSTAR": 0.00019611082, "MEAN_MOTION_DOT": 1.858e-05, "MEAN_MOTION_DDOT": 0}, "tle": {"line1": "1 28649U 05017A   25348.89749308  .00001858  00000+0  19611-3 0  9994", "line2": "2 28649  97.5498  15.2154 0001118  48.5747 311.5568 14.90413613116365"}}, "geometry": {"type": "Point", "coordinates": [32.75091242363732, -65.40327022790511]}}, {"type": "Feature", "properties": {"norad_id": 28893, "name": "SINAH 1", "group": "resource", "lat": 12.524143769548678, "lon": 116.33903573380019, "alt_km": 686.3186843808244, "timestamp": "2025-12-15T14:57:57.496673+00:00", "meta": {"OBJECT_NAME": "SINAH 1", "OBJECT_ID": "2005-043D", "EPOCH": "2025-12-14T22:30:16.651872", "MEAN_MOTION": 14.63964877, "ECCENTRICITY": 0.00154483, "INCLINATION": 98.2604, "RA_OF_ASC_NODE": 117.5008, "ARG_OF_PERICENTER": 130.5297, "MEAN_ANOMALY": 229.7253, "EPHEMERIS_TYPE": 0, "CLASSIFICATION_TYPE": "U", "NORAD_CAT_ID": 28893, "ELEMENT_SET_NO": 999, "REV_AT_EPOCH": 7356, "BSTAR": 0.00010359399, "MEAN_MOTION_DOT": 4.94e-06, "MEAN_MOTION_DDOT": 0}, "tle": {"line1": "1 28893U 05043D   25348.93769273  .00000494  00000+0  10359-3 0  9997", "line2": "2 28893  98.2604 117.5008 0015448 130.5297 229.7253 14.63964877 73568"}}, "geometry": {"type": "Point", "coordinates": [116.33903573380019, 12.524143769548678]}}, {"type": "Feature", "properties": {"norad_id": 29079, "name": "EROS B", "group": "resource", "lat": 28.16018952744222, "lon": 102.37623058529043, "alt_km": 359.84686358673116, "timestamp": "2025-12-15T14:57:57.496683+00:00", "meta": {"OBJECT_NAME": "EROS B", "OBJECT_ID": "2006-014A", "EPOCH": "2025-12-14T22:00:32.669856", "MEAN_MOTION": 15.69012512, "ECCENTRICITY": 0.00026628, "INCLINATION": 97.346, "RA_OF_ASC_NODE": 105.5954, "ARG_OF_PERICENTER": 311.2775, "MEAN_ANOMALY": 48.8257, "EPHEMERIS_TYPE": 0, "CLASSIFICATION_TYPE": "U", "NORAD_CAT_ID": 29079, "ELEMENT_SET_NO": 999, "REV_AT_EPOCH": 9114, "BSTAR": 0.0010265229, "MEAN_MOTION_DOT": 0.0011966, "MEAN_MOTION_DDOT": 0}, "tle": {"line1": "1 29079U 06014A   25348.91704479  .00119660  00000+0  10265-2 0  9999", "line2": "2 29079  97.3460 105.5954 0002662 311.2775  48.8257 15.69012512 91140"}}, "geometry": {"type": "Point", "coordinates": [102.37623058529043, 28.16018952744222]}}, {"type": "Feature", "properties": {"norad_id": 29228, "name": "RESURS-DK 1", "group": "resource", "lat": 68.21197866972429, "lon": 160.51722926314707, "alt_km": 527.141221293824, "timestamp": "2025-12-15T14:57:57.496694+00:00", "meta": {"OBJECT_NAME": "RESURS-DK 1", "OBJECT_ID": "2006-021A", "EPOCH": "2025-12-14T17:58:07.820832", "MEAN_MOTION": 15.12174507, "ECCENTRICITY": 0.00070406, "INCLINATION": 69.9334, "RA_OF_ASC_NODE": 96.6465, "ARG_OF_PERICENTER": 257.4987, "MEAN_ANOMALY": 102.5391, "EPHEMERIS_TYPE": 0, "CLASSIFICATION_TYPE": "U", "NORAD_CAT_ID": 29228, "ELEMENT_SET_NO": 999, "REV_AT_EPOCH": 7468, "BSTAR": 0.00016722153, "MEAN_MOTION_DOT": 2.786e-05, "MEAN_MOTION_DDOT": 0}, "tle": {"line1": "1 29228U 06021A   25348.74870163  .00002786  00000+0  16722-3 0  9993", "line2": "2 29228  69.9334  96.6465 0007040 257.4987 102.5391 15.12174507 74687"}}, "geometry": {"type": "Point", "coordinates": [160.51722926314707, 68.21197866972429]}}, {"type": "Feature", "properties": {"norad_id": 29268, "name": "ARIRANG-2 (KOMPSAT-2)", "group": "resource", "lat": -74.22970023629755, "lon": -152.898319670255, "alt_km": 676.9119799530436, "timestamp": "2025-12-15T14:57:57.496704+00:00", "meta": {"OBJECT_NAME": "ARIRANG-2 (KOMPSAT-2)", "OBJECT_ID": "2006-031A", "EPOCH": "2025-12-14T23:37:26.627808", "MEAN_MOTION": 14.64496672, "ECCENTRICITY": 0.00133943, "INCLINATION": 97.8265, "RA_OF_ASC_NODE": 177.3477, "ARG_OF_PERICENTER": 301.588, "MEAN_ANOMALY": 214.0173, "EPHEMERIS_TYPE": 0, "CLASSIFICATION_TYPE": "U", "NORAD_CAT_ID": 29268, "ELEMENT_SET_NO": 999, "REV_AT_EPOCH": 3451, "BSTAR": 0.00011039716, "MEAN_MOTION_DOT": 5.4e-06, "MEAN_MOTION_DDOT": 0}, "tle": {"line1": "1 29268U 06031A   25348.98433597  .00000540  00000+0  11040-3 0  9994", "line2": "2 29268  97.8265 177.3477 0013394 301.5880 214.0173 14.64496672 34517"}}, "geometry": {"type": "Point", "coordinates": [-152.898319670255, -74.22970023629755]}}, {"type": "Feature", "properties": {"norad_id": 29709, "name": "LAPAN-TUBSAT", "group": "resource", "lat": 75.55938035392978, "lon": -53.86048483188625, "alt_km": 595.0286045240509, "timestamp": "2025-12-15T14:57:57.496715+00:00", "meta": {"OBJECT_NAME": "LAPAN-TUBSAT", "OBJECT_ID": "2007-001A", "EPOCH": "2025-12-14T22:27:10.046016", "MEAN_MOTION": 14.85676314, "ECCENTRICITY": 0.00135616, "INCLINATION": 98.1259, "RA_OF_ASC_NODE": 339.1372, "ARG_OF_PERICENTER": 67.7807, "MEAN_ANOMALY": 292.4845, "EPHEMERIS_TYPE": 0, "CLASSIFICATION_TYPE": "U", "NORAD_CAT_ID": 29709, "ELEMENT_SET_NO": 999, "REV_AT_EPOCH": 2379, "BSTAR": 0.00016398051, "MEAN_MOTION_DOT": 1.366e-05, "MEAN_MOTION_DDOT": 0}, "tle": {"line1": "1 29709U 07001A   25348.93553294  .00001366  00000+0  16398-3 0  9992", "line2": "2 29709  98.1259 339.1372 0013561  67.7807 292.4845 14.85676314 23792"}}, "geometry": {"type": "Point", "coordinates": [-53.86048483188625, 75.55938035392978]}}, {"type": "Feature", "properties": {"norad_id": 31113, "name": "HAIYANG-1B", "group": "resource", "lat": 62.49472829206185, "lon": 170.12882447035403, "alt_km": 781.7679838565773, "timestamp": "2025-12-15T14:57:57.496724+00:00", "meta": {"OBJECT_NAME": "HAIYANG-1B", "OBJECT_ID": "2007-010A", "EPOCH": "2025-12-14T21:38:39.078816", "MEAN_MOTION": 14.30965742, "ECCENTRICITY": 0.00141677, "INCLINATION": 98.3316, "RA_OF_ASC_NODE": 333.0907, "ARG_OF_PERICENTER": 31.8611, "MEAN_ANOMALY": 328.3427, "EPHEMERIS_TYPE": 0, "CLASSIFICATION_TYPE": "U", "NORAD_CAT_ID": 31113, "ELEMENT_SET_NO": 999, "REV_AT_EPOCH": 97427, "BSTAR": 6.8708988e-05, "MEAN_MOTION_DOT": 1.39e-06, "MEAN_MOTION_DDOT": 0}, "tle": {"line1": "1 31113U 07010A   25348.90184119  .00000139  00000+0  68709-4 0  9998", "line2": "2 31113  98.3316 333.0907 0014167  31.8611 328.3427 14.30965742974274"}}, "geometry": {"type": "Point", "coordinates": [170.12882447035403, 62.49472829206185]}}, {"type": "Feature", "properties": {"norad_id": 31598, "name": "COSMO-SKYMED 1", "group": "resource", "lat": 40.6770085728585, "lon": 1.8802369546704774, "alt_km": 576.1405803073376, "timestamp": "2025-12-15T14:57:57.496734+00:00", "meta": {"OBJECT_NAME": "COSMO-SKYMED 1", "OBJECT_ID": "2007-023A", "EPOCH": "2025-12-14T22:17:34.012032", "MEAN_MOTION": 14.95782605, "ECCENTRICITY": 0.00014077, "INCLINATION": 97.8833, "RA_OF_ASC_NODE": 174.3421, "ARG_OF_PERICENTER": 89.9184, "MEAN_ANOMALY": 270.2198, "EPHEMERIS_TYPE": 0, "CLASSIFICATION_TYPE": "U", "NORAD_CAT_ID": 31598, "ELEMENT_SET_NO": 999, "REV_AT_EPOCH": 223, "BSTAR": 0.00030711903, "MEAN_MOTION_DOT": 3.367e-05, "MEAN_MOTION_DDOT": 0}, "tle": {"line1": "1 31598U 07023A   25348.92886588  .00003367  00000+0  30712-3 0  9998", "line2": "2 31598  97.8833 174.3421 0001407  89.9184 270.2198 14.95782605  2232"}}, "geometry": {"type": "Point", "coordinates": [1.8802369546704774, 40.6770085728585]}}, {"type": "Feature", "properties": {"norad_id": 31698, "name": "TERRASAR-X", "group": "resource", "lat": 36.39388200593099, "lon": -10.57003395580001, "alt_km": 505.09068996350015, "timestamp": "2025-12-15T14:57:57.496745+00:00", "meta": {"OBJECT_NAME": "TERRASAR-X", "OBJECT_ID": "2007-026A", "EPOCH": "2025-12-14T13:30:41.171328", "MEAN_MOTION": 15.19155649, "ECCENTRICITY": 0.00017638, "INCLINATION": 97.4455, "RA_OF_ASC_NODE": 353.9163, "ARG_OF_PERICENTER": 88.5076, "MEAN_ANOMALY": 271.6361, "EPHEMERIS_TYPE": 0, "CLASSIFICATION_TYPE": "U", "NORAD_CAT_ID": 31698, "ELEMENT_SET_NO": 999, "REV_AT_EPOCH": 2519, "BSTAR": 9.163965e-05, "MEAN_MOTION_DOT": 1.858e-05, "MEAN_MOTION_DDOT": 0}, "tle": {"line1": "1 31698U 07026A   25348.56297652  .00001858  00000+0  91640-4 0  9991", "line2": "2 31698  97.4455 353.9163 0001763  88.5076 271.6361 15.19155649 25193"}}, "geometry": {"type": "Point", "coordinates": [-10.57003395580001, 36.39388200593099]}}, {"type": "Feature", "properties": {"norad_id": 32060, "name": "WORLDVIEW-1 (WV-1)", "group": "resource", "lat": 80.58979459452298, "lon": -21.4550474140979, "alt_km": 483.6208398654762, "timestamp": "2025-12-15T14:57:57.496755+00:00", "meta": {"OBJECT_NAME": "WORLDVIEW-1 (WV-1)", "OBJECT_ID": "2007-041A", "EPOCH": "2025-12-14T21:13:17.942880", "MEAN_MOTION": 15.24730196, "ECCENTRICITY": 8.212e-05, "INCLINATION": 97.3832, "RA_OF_ASC_NODE": 106.3346, "ARG_OF_PERICENTER": 112.8228, "MEAN_ANOMALY": 247.3096, "EPHEMERIS_TYPE": 0, "CLASSIFICATION_TYPE": "U", "NORAD_CAT_ID": 32060, "ELEMENT_SET_NO": 999, "REV_AT_EPOCH": 1480, "BSTAR": 0.00026157834, "MEAN_MOTION_DOT": 6.404e-05, "MEAN_MOTION_DDOT": 0}, "tle": {"line1": "1 32060U 07041A   25348.88423545  .00006404  00000+0  26158-3 0  9992", "line2": "2 32060  97.3832 106.3346 0000821 112.8228 247.3096 15.24730196 14805"}}, "geometry": {"type": "Point", "coordinates": [-21.4550474140979, 80.58979459452298]}}]}